1578096301
1 42790U 17036AB  20002.81043690  .00001180  00000-0  51584-4 0  9991
2 42790  97.3288  62.1191 0009411 247.4537 112.5705 15.23991121140468
1578117901
1 42790U 17036AB  20002.81043690  .00001180  00000-0  51584-4 0  9991
2 42790  97.3288  62.1191 0009411 247.4537 112.5705 15.23991121140468
1578139501
1 42790U 17036AB  20002.81043690  .00001180  00000-0  51584-4 0  9991
2 42790  97.3288  62.1191 0009411 247.4537 112.5705 15.23991121140468
1578161101
1 42790U 17036AB  20003.79532684  .00001234  00000-0  53804-4 0  9992
2 42790  97.3287  63.0817 0009449 243.5023 116.5245 15.23993863140615
1578204301
1 42790U 17036AB  20003.79532684  .00001234  00000-0  53804-4 0  9992
2 42790  97.3287  63.0817 0009449 243.5023 116.5245 15.23993863140615
1578225901
1 42790U 17036AB  20003.79532684  .00001234  00000-0  53804-4 0  9992
2 42790  97.3287  63.0817 0009449 243.5023 116.5245 15.23993863140615
1578247501
1 42790U 17036AB  20004.84587445  .00001298  00000-0  56427-4 0  9998
2 42790  97.3286  64.1085 0009507 239.2334 120.7968 15.23996832140770
1578290701
1 42790U 17036AB  20004.84587445  .00001298  00000-0  56427-4 0  9998
2 42790  97.3286  64.1085 0009507 239.2334 120.7968 15.23996832140770
1578312301
1 42790U 17036AB  20004.84587445  .00001298  00000-0  56427-4 0  9998
2 42790  97.3286  64.1085 0009507 239.2334 120.7968 15.23996832140770
1578333901
1 42790U 17036AB  20005.83076003  .00001473  00000-0  63661-4 0  9994
2 42790  97.3285  65.0711 0009568 235.2975 124.7362 15.24000694140921
1578377101
1 42790U 17036AB  20005.83076003  .00001473  00000-0  63661-4 0  9994
2 42790  97.3285  65.0711 0009568 235.2975 124.7362 15.24000694140921
1578398701
1 42790U 17036AB  20005.83076003  .00001473  00000-0  63661-4 0  9994
2 42790  97.3285  65.0711 0009568 235.2975 124.7362 15.24000694140921
1578420301
1 42790U 17036AB  20006.88130259  .00001541  00000-0  66438-4 0  9995
2 42790  97.3283  66.0977 0009644 231.0694 128.9685 15.24004290141089
1578463501
1 42790U 17036AB  20006.88130259  .00001541  00000-0  66438-4 0  9995
2 42790  97.3283  66.0977 0009644 231.0694 128.9685 15.24004290141089
1578485101
1 42790U 17036AB  20006.88130259  .00001541  00000-0  66438-4 0  9995
2 42790  97.3283  66.0977 0009644 231.0694 128.9685 15.24004290141089
1578506701
1 42790U 17036AB  20007.86618442  .00001529  00000-0  65962-4 0  9996
2 42790  97.3281  67.0603 0009708 227.1333 132.9090 15.24007251141233
1578549901
1 42790U 17036AB  20007.86618442  .00001529  00000-0  65962-4 0  9996
2 42790  97.3281  67.0603 0009708 227.1333 132.9090 15.24007251141233
1578571501
1 42790U 17036AB  20007.86618442  .00001529  00000-0  65962-4 0  9996
2 42790  97.3281  67.0603 0009708 227.1333 132.9090 15.24007251141233
1578593101
1 42790U 17036AB  20008.85106397  .00001572  00000-0  67723-4 0  9992
2 42790  97.3279  68.0228 0009781 223.2208 136.8263 15.24010697141382
1578636301
1 42790U 17036AB  20008.85106397  .00001572  00000-0  67723-4 0  9992
2 42790  97.3279  68.0228 0009781 223.2208 136.8263 15.24010697141382
1578657901
1 42790U 17036AB  20009.17935664  .00001592  00000-0  68540-4 0  9995
2 42790  97.3278  68.3436 0009809 221.9896 138.0590 15.24011943141432
1578679501
1 42790U 17036AB  20009.17935664  .00001592  00000-0  68540-4 0  9995
2 42790  97.3278  68.3436 0009809 221.9896 138.0590 15.24011943141432
1578722701
1 42790U 17036AB  20009.17935664  .00001592  00000-0  68540-4 0  9995
2 42790  97.3278  68.3436 0009809 221.9896 138.0590 15.24011943141432
1578744301
1 42790U 17036AB  20009.17935664  .00001592  00000-0  68540-4 0  9995
2 42790  97.3278  68.3436 0009809 221.9896 138.0590 15.24011943141432
1578765901
1 42790U 17036AB  20010.88647367  .00001649  00000-0  70875-4 0  9992
2 42790  97.3275  70.0119 0009952 215.4419 144.6158 15.24018495141695
1578809101
1 42790U 17036AB  20010.88647367  .00001649  00000-0  70875-4 0  9992
2 42790  97.3275  70.0119 0009952 215.4419 144.6158 15.24018495141695
1578830701
1 42790U 17036AB  20011.80568803  .00001649  00000-0  70877-4 0  9994
2 42790  97.3275  70.9102 0010019 212.0070 148.0560 15.24021786141836
1578852301
1 42790U 17036AB  20011.80568803  .00001649  00000-0  70877-4 0  9994
2 42790  97.3275  70.9102 0010019 212.0070 148.0560 15.24021786141836
1578873901
1 42790U 17036AB  20011.80568803  .00001649  00000-0  70877-4 0  9994
2 42790  97.3275  70.9102 0010019 212.0070 148.0560 15.24021786141836
1578895501
1 42790U 17036AB  20011.80568803  .00001649  00000-0  70877-4 0  9994
2 42790  97.3275  70.9102 0010019 212.0070 148.0560 15.24021786141836
1578917101
1 42790U 17036AB  20011.80568803  .00001649  00000-0  70877-4 0  9994
2 42790  97.3275  70.9102 0010019 212.0070 148.0560 15.24021786141836
1578938701
1 42790U 17036AB  20012.79055884  .00001603  00000-0  68974-4 0  9998
2 42790  97.3273  71.8725 0010105 208.2618 151.8072 15.24024863141981
1578981901
1 42790U 17036AB  20012.79055884  .00001603  00000-0  68974-4 0  9998
2 42790  97.3273  71.8725 0010105 208.2618 151.8072 15.24024863141981
1579003501
1 42790U 17036AB  20012.79055884  .00001603  00000-0  68974-4 0  9998
2 42790  97.3273  71.8725 0010105 208.2618 151.8072 15.24024863141981
1579025101
1 42790U 17036AB  20013.77542773  .00001550  00000-0  66766-4 0  9993
2 42790  97.3272  72.8350 0010199 204.5770 155.4982 15.24027862142136
1579046701
1 42790U 17036AB  20013.77542773  .00001550  00000-0  66766-4 0  9993
2 42790  97.3272  72.8350 0010199 204.5770 155.4982 15.24027862142136
1579068301
1 42790U 17036AB  20013.77542773  .00001550  00000-0  66766-4 0  9993
2 42790  97.3272  72.8350 0010199 204.5770 155.4982 15.24027862142136
1579089901
1 42790U 17036AB  20013.77542773  .00001550  00000-0  66766-4 0  9993
2 42790  97.3272  72.8350 0010199 204.5770 155.4982 15.24027862142136
1579111501
1 42790U 17036AB  20014.82595256  .00001434  00000-0  61985-4 0  9993
2 42790  97.3270  73.8616 0010305 200.6863 159.3959 15.24030662142295
1579133101
1 42790U 17036AB  20014.82595256  .00001434  00000-0  61985-4 0  9993
2 42790  97.3270  73.8616 0010305 200.6863 159.3959 15.24030662142295
1579154701
1 42790U 17036AB  20015.41687190  .00001221  00000-0  53211-4 0  9995
2 42790  97.3270  74.4391 0010371 198.4843 161.6019 15.24031393142382
1579176301
1 42790U 17036AB  20015.41687190  .00001221  00000-0  53211-4 0  9995
2 42790  97.3270  74.4391 0010371 198.4843 161.6019 15.24031393142382
1579197901
1 42790U 17036AB  20015.41687190  .00001221  00000-0  53211-4 0  9995
2 42790  97.3270  74.4391 0010371 198.4843 161.6019 15.24031393142382
1579219501
1 42790U 17036AB  20015.41687190  .00001221  00000-0  53211-4 0  9995
2 42790  97.3270  74.4391 0010371 198.4843 161.6019 15.24031393142382
1579241101
1 42790U 17036AB  20016.20476349  .00001168  00000-0  51004-4 0  9993
2 42790  97.3268  75.2090 0010454 195.5854 164.5063 15.24033451142508
1579262701
1 42790U 17036AB  20016.40173618  .00001180  00000-0  51511-4 0  9995
2 42790  97.3268  75.4014 0010477 194.8397 165.2535 15.24034071142539
1579284301
1 42790U 17036AB  20016.40173618  .00001180  00000-0  51511-4 0  9995
2 42790  97.3268  75.4014 0010477 194.8397 165.2535 15.24034071142539
1579305901
1 42790U 17036AB  20016.40173618  .00001180  00000-0  51511-4 0  9995
2 42790  97.3268  75.4014 0010477 194.8397 165.2535 15.24034071142539
1579327501
1 42790U 17036AB  20017.18962669  .00001155  00000-0  50469-4 0  9996
2 42790  97.3267  76.1713 0010553 191.9846 168.1142 15.24036041142652
1579349101
1 42790U 17036AB  20017.58357162  .00001140  00000-0  49833-4 0  9993
2 42790  97.3267  76.5563 0010599 190.5260 169.5757 15.24036971142710
1579392301
1 42790U 17036AB  20017.58357162  .00001140  00000-0  49833-4 0  9993
2 42790  97.3267  76.5563 0010599 190.5260 169.5757 15.24036971142710
1579413901
1 42790U 17036AB  20018.17448847  .00001142  00000-0  49926-4 0  9995
2 42790  97.3266  77.1337 0010657 188.4371 171.6689 15.24038486142800
1579435501
1 42790U 17036AB  20018.17448847  .00001142  00000-0  49926-4 0  9995
2 42790  97.3266  77.1337 0010657 188.4371 171.6689 15.24038486142800
1579457101
1 42790U 17036AB  20018.17448847  .00001142  00000-0  49926-4 0  9995
2 42790  97.3266  77.1337 0010657 188.4371 171.6689 15.24038486142800
1579478701
1 42790U 17036AB  20018.17448847  .00001142  00000-0  49926-4 0  9995
2 42790  97.3266  77.1337 0010657 188.4371 171.6689 15.24038486142800
1579500301
1 42790U 17036AB  20019.22500624  .00001285  00000-0  55814-4 0  9995
2 42790  97.3264  78.1602 0010761 184.7196 175.3942 15.24041815142964
1579521901
1 42790U 17036AB  20019.29066353  .00001283  00000-0  55723-4 0  9995
2 42790  97.3264  78.2242 0010766 184.5059 175.6083 15.24041965142972
1579543501
1 42790U 17036AB  20019.29066353  .00001283  00000-0  55723-4 0  9995
2 42790  97.3264  78.2242 0010766 184.5059 175.6083 15.24041965142972
1579565101
1 42790U 17036AB  20019.29066353  .00001283  00000-0  55723-4 0  9995
2 42790  97.3264  78.2242 0010766 184.5059 175.6083 15.24041965142972
1579586701
1 42790U 17036AB  20020.40683651  .00001280  00000-0  55601-4 0  9998
2 42790  97.3263  79.3149 0010880 180.5571 179.5656 15.24044664143149
1579608301
1 42790U 17036AB  20020.66946525  .00001256  00000-0  54625-4 0  9996
2 42790  97.3263  79.5715 0010904 179.6355 180.4893 15.24045151143186
1579629901
1 42790U 17036AB  20020.66946525  .00001256  00000-0  54625-4 0  9996
2 42790  97.3263  79.5715 0010904 179.6355 180.4893 15.24045151143186
1579651501
1 42790U 17036AB  20021.19472254  .00001169  00000-0  51039-4 0  9997
2 42790  97.3262  80.0848 0010959 177.8150 182.3138 15.24045835143263
1579673101
1 42790U 17036AB  20021.19472254  .00001169  00000-0  51039-4 0  9997
2 42790  97.3262  80.0848 0010959 177.8150 182.3138 15.24045835143263
1579694701
1 42790U 17036AB  20021.58866504  .00001179  00000-0  51426-4 0  9996
2 42790  97.3261  80.4697 0011007 176.4133 183.7185 15.24046822143320
